QIANFAN-41              
1 62242U 24232F   25270.92000549  .00000130  00000+0  18221-3 0  9994
2 62242  88.9992  48.8354 0015245  55.6774 304.5817 13.50972285 89014
QIANFAN-42              
1 62243U 24232G   25270.97464932  .00000733  00000+0  31072-3 0  9998
2 62243  88.9992  45.9965 0013925 340.0127  20.0518 14.24362479 90589
QIANFAN-43              
1 62244U 24232H   25270.91593862  .00000216  00000+0  31613-3 0  9995
2 62244  88.9995  48.8978 0016889  60.1770 300.1058 13.50973774 57628
QIANFAN-44              
1 62245U 24232J   25270.90354392  .00000140  00000+0  19748-3 0  9999
2 62245  88.9994  48.7109 0015046  57.9414 302.3196 13.50974961 89098
QIANFAN-45              
1 62246U 24232K   25270.94471301  .00000138  00000+0  19452-3 0  9993
2 62246  88.9998  48.8507 0015673  57.3172 302.9488 13.50971609 89026
QIANFAN-46              
1 62247U 24232L   25270.96938096  .00000149  00000+0  21186-3 0  9994
2 62247  88.9994  48.9203 0015873  62.2739 298.0020 13.50972299 88980
QIANFAN-47              
1 62248U 24232M   25270.97353481  .00000134  00000+0  18878-3 0  9993
2 62248  88.9989  48.8558 0016275  61.3436 298.9349 13.50973944 89014
QIANFAN-48              
1 62249U 24232N   25270.93651534  .00000150  00000+0  21291-3 0  9991
2 62249  88.9994  48.8585 0018565  63.3409 296.9641 13.50969598 89010
